              M50 Cartesian                         M50 Keplerian  
    -----------------------------------       --------------------------------
     X    =        -199613.89                 A    =         6789603.81  meter
     Y    =       -4610944.31  meter          E    =           .0015317
     Z    =       -4993899.25                 I    =           51.44490
     XDOT =       6922.558040                 Wp   =          114.19144
     YDOT =      -2526.581574  meter/sec      RA   =          327.10758  deg
     ZDOT =       2054.985121                 TA   =          175.90446
                                              MA   =          175.89191
                                              Ha   =            227.731  n.mi
                                              Hp   =            219.710
 
              M50 Cartesian                         J2K Cartesian  
    -----------------------------------       --------------------------------
     X    =        -654901.20                 X    =         -123779.97
     Y    =      -15127770.05  feet           Y    =        -4612753.08  meter
     Z    =      -16384183.89                 Z    =        -4994684.22
     XDOT =      22711.804593                 XDOT =        6940.314006
     YDOT =      -8289.309625  feet/sec       YDOT =       -2449.069585  meter/sec
     ZDOT =       6742.077167                 ZDOT =        2088.656931
 
              TDR Cartesian                         TDR Cartesian  
    -----------------------------------       --------------------------------
     X    =        3188439.42                 X    =          971836.34
     Y    =      -14799626.03  feet           Y    =        -4510926.01  meter
     Z    =      -16386724.13                 Z    =        -4994673.52
     XDOT =      22932.781137                 XDOT =        6989.911691
     YDOT =      -2686.365454  feet/sec       YDOT =        -818.804190  meter/sec
     ZDOT =       6884.575401                 ZDOT =        2098.418582
  
  
    The mean element set is posted at the UTC for which position is
    just north of the next ascending node relative to the above
    vector time
 
 
    TWO LINE MEAN ELEMENT SET
  
    ISS
    1 25544U 98067A   14049.56288831  .00016717  00000-0  10270-3 0  9118
    2 25544  51.6511 327.6432 0003530 148.8951 211.2409 15.50430771 32923
  
  
    Satellite: ISS
    Catalog Number: 25544
    Epoch time:      14049.56288831   =   yrday.fracday
    Element set:     911
    Inclination:       51.6511  deg
    RA of node:       327.6432  deg
    Eccentricity:     .0003530     
    Arg of perigee:   148.8951  deg
    Mean anomaly:     211.2409  deg
    Mean motion:   15.50430771  rev/day
    Decay rate:    1.67170E-04  rev/day^2
    Epoch rev:            3292
    Checksum:              295
 
 
    Coasting Arc #13 (Orbit 3307)
    ---------------------------------------
 
    Vector Time (GMT): 2014/050/13:12:36.088
    Vector Time (MET): N/A
    Weight (LBS)     : 911651.1
 
              M50 Cartesian                         M50 Keplerian  
    -----------------------------------       --------------------------------
     X    =          45973.04                 A    =         6790216.80  meter
     Y    =        4805005.01  meter          E    =           .0008074
     Z    =        4790828.09                 I    =           51.42168
     XDOT =      -6726.492523                 Wp   =           85.97573
     YDOT =       2632.191096  meter/sec      RA   =          322.13355  deg
     ZDOT =      -2571.124972                 TA   =           29.44872
                                              MA   =           29.40326
                                              Ha   =            227.521  n.mi
                                              Hp   =            219.752
 
              M50 Cartesian                         J2K Cartesian  
    -----------------------------------       --------------------------------
     X    =         150830.19                 X    =          -31033.11
     Y    =       15764452.13  feet           Y    =         4805089.05  meter
     Z    =       15717939.94                 Z    =         4790863.87
     XDOT =     -22068.545023                 XDOT =       -6742.936761
     YDOT =       8635.797560  feet/sec       YDOT =        2556.878933  meter/sec
     ZDOT =      -8435.449382                 ZDOT =       -2603.841241
 
              TDR Cartesian                         TDR Cartesian  
    -----------------------------------       --------------------------------
     X    =       -3566021.78                 X    =        -1086923.44
     Y    =       15357233.31  feet           Y    =         4680884.71  meter
     Z    =       15717290.17                 Z    =         4790630.04
     XDOT =     -22289.432009                 XDOT =       -6793.818876
     YDOT =       3613.696585  feet/sec       YDOT =        1101.454719  meter/sec
     ZDOT =      -8573.924168                 ZDOT =       -2613.332086
  
  
    The mean element set is posted at the UTC for which position is
    just north of the next ascending node relative to the above
    vector time
 
 
    TWO LINE MEAN ELEMENT SET
  
    ISS
    1 25544U 98067A   14050.59416922  .00016717  00000-0  10270-3 0  9128
    2 25544  51.6508 322.5313 0003416 153.4864 206.6462 15.50490740 33086
  
  
    Satellite: ISS
    Catalog Number: 25544
    Epoch time:      14050.59416922   =   yrday.fracday
    Element set:     912
    Inclination:       51.6508  deg
    RA of node:       322.5313  deg
    Eccentricity:     .0003416     
    Arg of perigee:   153.4864  deg
    Mean anomaly:     206.6462  deg
    Mean motion:   15.50490740  rev/day
    Decay rate:    1.67170E-04  rev/day^2
    Epoch rev:            3308
    Checksum:              288
 
 
    Coasting Arc #14 (Orbit 3322)
    ---------------------------------------
 
    Vector Time (GMT): 2014/051/13:12:36.088
    Vector Time (MET): N/A
    Weight (LBS)     : 911651.1
 
              M50 Cartesian                         M50 Keplerian  
    -----------------------------------       --------------------------------
     X    =          73904.82                 A    =         6791159.34  meter
     Y    =       -5038652.26  meter          E    =           .0012433
     Z    =       -4565206.02                 I    =           51.40101
     XDOT =       6481.235129                 Wp   =          121.65336
     YDOT =      -2678.324492  meter/sec      RA   =          317.15765  deg
     ZDOT =       3060.795325                 TA   =          179.13391
                                              MA   =          179.13175
                                              Ha   =            227.482  n.mi
                                              Hp   =            219.819
 
              M50 Cartesian                         J2K Cartesian  
    -----------------------------------       --------------------------------
     X    =         242469.87                 X    =          152418.81
     Y    =      -16531011.36  feet           Y    =        -5037387.24  meter
     Z    =      -14977710.04                 Z    =        -4564655.83
     XDOT =      21263.894779                 XDOT =        6495.834800
     YDOT =      -8787.153844  feet/sec       YDOT =       -2605.765252  meter/sec
     ZDOT =      10041.979414                 ZDOT =        3092.315734
 
              TDR Cartesian                         TDR Cartesian  
    -----------------------------------       --------------------------------
     X    =        3844109.19                 X    =         1171684.48
     Y    =      -16082615.69  feet           Y    =        -4901981.26  meter
     Z    =      -14974552.52                 Z    =        -4564243.61
     XDOT =      21411.501890                 XDOT =        6526.225776
     YDOT =      -4357.163486  feet/sec       YDOT =       -1328.063430  meter/sec
     ZDOT =      10175.409181                 ZDOT =        3101.464718
  
  
    The mean element set is posted at the UTC for which position is
    just north of the next ascending node relative to the above
    vector time
 
 
    TWO LINE MEAN ELEMENT SET
  
    ISS
    1 25544U 98067A   14051.56097838  .00016717  00000-0  10270-3 0  9138
    2 25544  51.6509 317.7382 0003423 158.0121 202.1178 15.50489019 33233
  
  
    Satellite: ISS
    Catalog Number: 25544
    Epoch time:      14051.56097838   =   yrday.fracday
    Element set:     913
    Inclination:       51.6509  deg
    RA of node:       317.7382  deg
    Eccentricity:     .0003423     
    Arg of perigee:   158.0121  deg
    Mean anomaly:     202.1178  deg
    Mean motion:   15.50489019  rev/day
    Decay rate:    1.67170E-04  rev/day^2
    Epoch rev:            3323
    Checksum:              295
 
 
    Coasting Arc #15 (Orbit 3338)
    ---------------------------------------
 
    Vector Time (GMT): 2014/052/13:12:36.088
    Vector Time (MET): N/A
    Weight (LBS)     : 911651.1
 
              M50 Cartesian                         M50 Keplerian  
    -----------------------------------       --------------------------------
     X    =        -174430.82                 A    =         6792053.20  meter
     Y    =        5271763.69  meter          E    =           .0010557
     Z    =        4269697.79                 I    =           51.38242
     XDOT =      -6248.470853                 Wp   =           91.32379
     YDOT =       2673.687962  meter/sec      RA   =          312.18102  deg
     ZDOT =      -3549.072123                 TA   =           35.04053
                                              MA   =           34.97112
                                              Ha   =            227.283  n.mi
                                              Hp   =            219.838
 
